IRIDIUM 57              
1 25273U 98019B   24365.86590172  .00000974  00000+0  33085-3 0  9995
2 25273  86.3968 215.7160 0001915  86.4213 273.7203 14.35661269400633
IRIDIUM 63              
1 25286U 98021B   24365.87898690  .00001476  00000+0  49894-3 0  9992
2 25286  86.4010 152.7026 0002156  91.8900 268.2544 14.36283380399682
IRIDIUM 69              
1 25319U 98026A   24365.91835794  .00001625  00000+0  50373-3 0  9995
2 25319  86.4004 166.4655 0001871 164.6968 195.4289 14.40625385398831
IRIDIUM 71              
1 25320U 98026B   24366.43552209  .00001662  00000+0  51276-3 0  9996
2 25320  86.4003 160.9749 0000402 346.2292  13.8896 14.40867739399684
IRIDIUM 73              
1 25344U 98032C   24365.71800816  .00002731  00000+0  68174-3 0  9992
2 25344  86.4431 118.3717 0001944 112.3987 247.7424 14.51295595406122
IRIDIUM 82              
1 25467U 98051A   24365.81024638  .00042779  00000+0  16484-2 0  9992
2 25467  86.3718 191.7624 0103482 211.1221 148.3869 15.21222298398268
